STARLINK-2624
1 28358C 21038F   21325.11075187 -.00003270  00000-0 -21910-3 0  3258
2 28358  53.0527 207.7285 0002280  69.7617  89.9198 15.06402834    19
